{"type": "FeatureCollection", "features": [ {"type": "Feature", "properties": {"norad_id": 29808, "name": "FENGYUN 1C DEB", "group": "fengyun-1c-debris", "lat": -80.38267409589659, "lon": 23.061497435221387, "alt_km": 509.10253549402023, "timestamp": "2025-12-18T23:35:49.331741+00:00", "meta": {"OBJECT_NAME": "FENGYUN 1C DEB", "OBJECT_ID": "1999-025DA", "EPOCH": "2025-12-18T07:14:11.081760", "MEAN_MOTION": 15.2541425, "ECCENTRICITY": 0.00196941, "INCLINATION": 99.0137, "RA_OF_ASC_NODE": 271.7635, "ARG_OF_PERICENTER": 86.894, "MEAN_ANOMALY": 38.0343, "EPHEMERIS_TYPE": 0, "CLASSIFICATION_TYPE": "U", "NORAD_CAT_ID": 29808, "ELEMENT_SET_NO": 999, "REV_AT_EPOCH": 98310, "BSTAR": 0.012000432, "MEAN_MOTION_DOT": 0.00317586, "MEAN_MOTION_DDOT": 0}, "tle": {"line1": "1 29808U 99025DA  25352.30151715  .00317586  00000+0  12000-1 0  9995", "line2": "2 29808  99.0137 271.7635 0019694  86.8940  38.0343 15.25414250983104"}}, "geometry": {"type": "Point", "coordinates": [23.061497435221387, -80.38267409589659]}}, {"type": "Feature", "properties": {"norad_id": 29809, "name": "FENGYUN 1C DEB", "group": "fengyun-1c-debris", "lat": -63.37023341488079, "lon": 118.68249775742217, "alt_km": 738.0053415269585, "timestamp": "2025-12-18T23:35:49.331751+00:00", "meta": {"OBJECT_NAME": "FENGYUN 1C DEB", "OBJECT_ID": "1999-025DB", "EPOCH": "2025-12-18T09:53:00.725280", "MEAN_MOTION": 14.46606861, "ECCENTRICITY": 0.01157859, "INCLINATION": 98.8608, "RA_OF_ASC_NODE": 316.2115, "ARG_OF_PERICENTER": 332.9909, "MEAN_ANOMALY": 179.068, "EPHEMERIS_TYPE": 0, "CLASSIFICATION_TYPE": "U", "NORAD_CAT_ID": 29809, "ELEMENT_SET_NO": 999, "REV_AT_EPOCH": 99549, "BSTAR": 0.00028717042, "MEAN_MOTION_DOT": 1.071e-05, "MEAN_MOTION_DDOT": 0}, "tle": {"line1": "1 29809U 99025DB  25352.41181395  .00001071  00000+0  28717-3 0  9998", "line2": "2 29809  98.8608 316.2115 0115785 332.9909 179.0680 14.46606861995499"}}, "geometry": {"type": "Point", "coordinates": [118.68249775742217, -63.37023341488079]}}, {"type": "Feature", "properties": {"norad_id": 29810, "name": "FENGYUN 1C DEB", "group": "fengyun-1c-debris", "lat": -55.90789331315847, "lon": -163.7101699006163, "alt_km": 828.1792862038583, "timestamp": "2025-12-18T23:35:49.331762+00:00", "meta": {"OBJECT_NAME": "FENGYUN 1C DEB", "OBJECT_ID": "1999-025DC", "EPOCH": "2025-12-18T14:39:01.589184", "MEAN_MOTION": 14.29137972, "ECCENTRICITY": 0.00666513, "INCLINATION": 99.2062, "RA_OF_ASC_NODE": 29.7599, "ARG_OF_PERICENTER": 2.0935, "MEAN_ANOMALY": 118.6873, "EPHEMERIS_TYPE": 0, "CLASSIFICATION_TYPE": "U", "NORAD_CAT_ID": 29810, "ELEMENT_SET_NO": 999, "REV_AT_EPOCH": 98461, "BSTAR": 0.00021297352, "MEAN_MOTION_DOT": 5.04e-06, "MEAN_MOTION_DDOT": 0}, "tle": {"line1": "1 29810U 99025DC  25352.61043506  .00000504  00000+0  21297-3 0  9999", "line2": "2 29810  99.2062  29.7599 0066651   2.0935 118.6873 14.29137972984611"}}, "geometry": {"type": "Point", "coordinates": [-163.7101699006163, -55.90789331315847]}}, {"type": "Feature", "properties": {"norad_id": 29812, "name": "FENGYUN 1C DEB", "group": "fengyun-1c-debris", "lat": -44.15075430943417, "lon": -6.892410808088473, "alt_km": 883.8726733937265, "timestamp": "2025-12-18T23:35:49.331772+00:00", "meta": {"OBJECT_NAME": "FENGYUN 1C DEB", "OBJECT_ID": "1999-025DE", "EPOCH": "2025-12-18T12:30:29.075040", "MEAN_MOTION": 14.02008018, "ECCENTRICITY": 0.01438999, "INCLINATION": 98.3492, "RA_OF_ASC_NODE": 180.8804, "ARG_OF_PERICENTER": 311.5101, "MEAN_ANOMALY": 104.077, "EPHEMERIS_TYPE": 0, "CLASSIFICATION_TYPE": "U", "NORAD_CAT_ID": 29812, "ELEMENT_SET_NO": 999, "REV_AT_EPOCH": 96253, "BSTAR": 0.00090353836, "MEAN_MOTION_DOT": 1.469e-05, "MEAN_MOTION_DDOT": 0}, "tle": {"line1": "1 29812U 99025DE  25352.52116985  .00001469  00000+0  90354-3 0  9994", "line2": "2 29812  98.3492 180.8804 0143899 311.5101 104.0770 14.02008018962532"}}, "geometry": {"type": "Point", "coordinates": [-6.892410808088473, -44.15075430943417]}}, {"type": "Feature", "properties": {"norad_id": 29813, "name": "FENGYUN 1C DEB", "group": "fengyun-1c-debris", "lat": 23.145996907405824, "lon": 8.885221075307172, "alt_km": 869.4754742182504, "timestamp": "2025-12-18T23:35:49.331782+00:00", "meta": {"OBJECT_NAME": "FENGYUN 1C DEB", "OBJECT_ID": "1999-025DF", "EPOCH": "2025-12-18T12:18:23.635584", "MEAN_MOTION": 14.09453073, "ECCENTRICITY": 0.00120746, "INCLINATION": 98.7269, "RA_OF_ASC_NODE": 12.1942, "ARG_OF_PERICENTER": 204.9178, "MEAN_ANOMALY": 312.9411, "EPHEMERIS_TYPE": 0, "CLASSIFICATION_TYPE": "U", "NORAD_CAT_ID": 29813, "ELEMENT_SET_NO": 999, "REV_AT_EPOCH": 97341, "BSTAR": 0.00011810672, "MEAN_MOTION_DOT": 1.64e-06, "MEAN_MOTION_DDOT": 0}, "tle": {"line1": "1 29813U 99025DF  25352.51277356  .00000164  00000+0  11811-3 0  9996", "line2": "2 29813  98.7269  12.1942 0012074 204.9178 312.9411 14.09453073973411"}}, "geometry": {"type": "Point", "coordinates": [8.885221075307172, 23.145996907405824]}}, {"type": "Feature", "properties": {"norad_id": 29815, "name": "FENGYUN 1C DEB", "group": "fengyun-1c-debris", "lat": 39.86458087437923, "lon": -171.8457594975307, "alt_km": 558.795052317766, "timestamp": "2025-12-18T23:35:49.331792+00:00", "meta": {"OBJECT_NAME": "FENGYUN 1C DEB", "OBJECT_ID": "1999-025DH", "EPOCH": "2025-12-18T11:29:23.157600", "MEAN_MOTION": 14.63749692, "ECCENTRICITY": 0.01841278, "INCLINATION": 98.0555, "RA_OF_ASC_NODE": 0.8688, "ARG_OF_PERICENTER": 117.2203, "MEAN_ANOMALY": 244.7895, "EPHEMERIS_TYPE": 0, "CLASSIFICATION_TYPE": "U", "NORAD_CAT_ID": 29815, "ELEMENT_SET_NO": 999, "REV_AT_EPOCH": 99939, "BSTAR": 0.00038744289, "MEAN_MOTION_DOT": 2.53e-05, "MEAN_MOTION_DDOT": 0}, "tle": {"line1": "1 29815U 99025DH  25352.47874025  .00002530  00000+0  38744-3 0  9992", "line2": "2 29815  98.0555   0.8688 0184127 117.2203 244.7895 14.63749692999397"}}, "geometry": {"type": "Point", "coordinates": [-171.8457594975307, 39.86458087437923]}}, {"type": "Feature", "properties": {"norad_id": 29816, "name": "FENGYUN 1C DEB", "group": "fengyun-1c-debris", "lat": -51.857772974539806, "lon": 21.711486936165862, "alt_km": 701.1331814588548, "timestamp": "2025-12-18T23:35:49.331803+00:00", "meta": {"OBJECT_NAME": "FENGYUN 1C DEB", "OBJECT_ID": "1999-025DJ", "EPOCH": "2025-12-18T14:29:18.727872", "MEAN_MOTION": 14.44351419, "ECCENTRICITY": 0.02378678, "INCLINATION": 98.9929, "RA_OF_ASC_NODE": 212.9439, "ARG_OF_PERICENTER": 159.6579, "MEAN_ANOMALY": 258.1767, "EPHEMERIS_TYPE": 0, "CLASSIFICATION_TYPE": "U", "NORAD_CAT_ID": 29816, "ELEMENT_SET_NO": 999, "REV_AT_EPOCH": 98272, "BSTAR": 0.00065526572, "MEAN_MOTION_DOT": 3.132e-05, "MEAN_MOTION_DDOT": 0}, "tle": {"line1": "1 29816U 99025DJ  25352.60368898  .00003132  00000+0  65527-3 0  9992", "line2": "2 29816  98.9929 212.9439 0237867 159.6579 258.1767 14.44351419982729"}}, "geometry": {"type": "Point", "coordinates": [21.711486936165862, -51.857772974539806]}}, {"type": "Feature", "properties": {"norad_id": 29817, "name": "FENGYUN 1C DEB", "group": "fengyun-1c-debris", "lat": -34.07277033036272, "lon": 156.07495579380648, "alt_km": 857.9470235454792, "timestamp": "2025-12-18T23:35:49.331813+00:00", "meta": {"OBJECT_NAME": "FENGYUN 1C DEB", "OBJECT_ID": "1999-025DK", "EPOCH": "2025-12-18T12:57:15.126624", "MEAN_MOTION": 14.14259667, "ECCENTRICITY": 0.00119691, "INCLINATION": 98.5577, "RA_OF_ASC_NODE": 341.4955, "ARG_OF_PERICENTER": 359.4131, "MEAN_ANOMALY": 118.5874, "EPHEMERIS_TYPE": 0, "CLASSIFICATION_TYPE": "U", "NORAD_CAT_ID": 29817, "ELEMENT_SET_NO": 999, "REV_AT_EPOCH": 97477, "BSTAR": 0.00027079604, "MEAN_MOTION_DOT": 4.75e-06, "MEAN_MOTION_DDOT": 0}, "tle": {"line1": "1 29817U 99025DK  25352.53975841  .00000475  00000+0  27080-3 0  9996", "line2": "2 29817  98.5577 341.4955 0011969 359.4131 118.5874 14.14259667974776"}}, "geometry": {"type": "Point", "coordinates": [156.07495579380648, -34.07277033036272]}}, {"type": "Feature", "properties": {"norad_id": 29818, "name": "FENGYUN 1C DEB", "group": "fengyun-1c-debris", "lat": 81.04429996162912, "lon": 126.95168470363443, "alt_km": 860.6088250200992, "timestamp": "2025-12-18T23:35:49.331823+00:00", "meta": {"OBJECT_NAME": "FENGYUN 1C DEB", "OBJECT_ID": "1999-025DL", "EPOCH": "2025-12-18T14:55:10.326720", "MEAN_MOTION": 14.04504585, "ECCENTRICITY": 0.01149336, "INCLINATION": 98.7208, "RA_OF_ASC_NODE": 229.7066, "ARG_OF_PERICENTER": 9.3853, "MEAN_ANOMALY": 54.2021, "EPHEMERIS_TYPE": 0, "CLASSIFICATION_TYPE": "U", "NORAD_CAT_ID": 29818, "ELEMENT_SET_NO": 999, "REV_AT_EPOCH": 96892, "BSTAR": 0.00019958031, "MEAN_MOTION_DOT": 2.96e-06, "MEAN_MOTION_DDOT": 0}, "tle": {"line1": "1 29818U 99025DL  25352.62164730  .00000296  00000+0  19958-3 0  9990", "line2": "2 29818  98.7208 229.7066 0114933   9.3853  54.2021 14.04504585968929"}}, "geometry": {"type": "Point", "coordinates": [126.95168470363443, 81.04429996162912]}}, {"type": "Feature", "properties": {"norad_id": 29819, "name": "FENGYUN 1C DEB", "group": "fengyun-1c-debris", "lat": 26.116755812178422, "lon": 160.7891598952748, "alt_km": 915.7862626749557, "timestamp": "2025-12-18T23:35:49.331833+00:00", "meta": {"OBJECT_NAME": "FENGYUN 1C DEB", "OBJECT_ID": "1999-025DM", "EPOCH": "2025-12-18T13:11:54.415104", "MEAN_MOTION": 14.02205656, "ECCENTRICITY": 0.01914871, "INCLINATION": 98.7333, "RA_OF_ASC_NODE": 336.0519, "ARG_OF_PERICENTER": 50.887, "MEAN_ANOMALY": 74.4957, "EPHEMERIS_TYPE": 0, "CLASSIFICATION_TYPE": "U", "NORAD_CAT_ID": 29819, "ELEMENT_SET_NO": 999, "REV_AT_EPOCH": 96701, "BSTAR": 0.00036844937, "MEAN_MOTION_DOT": 6.22e-06, "MEAN_MOTION_DDOT": 0}, "tle": {"line1": "1 29819U 99025DM  25352.54993536  .00000622  00000+0  36845-3 0  9993", "line2": "2 29819  98.7333 336.0519 0191487  50.8870  74.4957 14.02205656967019"}}, "geometry": {"type": "Point", "coordinates": [160.7891598952748, 26.116755812178422]}}]}